[
  {
    "ZipCode": 1000,
    "Town": "Sofia"
  },
  {
    "ZipCode": 1280,
    "Town": "Novi Iskar"
  },
  {
    "ZipCode": 1320,
    "Town": "Bankya"
  },
  {
    "ZipCode": 1830,
    "Town": "Buhovo"
  },
  {
    "ZipCode": 2000,
    "Town": "Samokov"
  },
  {
    "ZipCode": 2030,
    "Town": "Kostenets"
  },
  {
    "ZipCode": 2040,
    "Town": "Dolna banya"
  },
  {
    "ZipCode": 2050,
    "Town": "Ihtiman"
  },
  {
    "ZipCode": 2070,
    "Town": "Pirdop"
  },
  {
    "ZipCode": 2077,
    "Town": "Koprivshtitsa"
  },
  {
    "ZipCode": 2080,
    "Town": "Zlatitsa"
  },
  {
    "ZipCode": 2100,
    "Town": "Elin Pelin"
  },
  {
    "ZipCode": 2110,
    "Town": "Novi khan"
  },
  {
    "ZipCode": 2140,
    "Town": "Botevgrad"
  },
  {
    "ZipCode": 2161,
    "Town": "Pravets"
  },
  {
    "ZipCode": 2180,
    "Town": "Etropole"
  },
  {
    "ZipCode": 2200,
    "Town": "Slivnitsa"
  },
  {
    "ZipCode": 2210,
    "Town": "Dragoman"
  },
  {
    "ZipCode": 2227,
    "Town": "Bozhurishte"
  },
  {
    "ZipCode": 2230,
    "Town": "Kostinbrod"
  },
  {
    "ZipCode": 2240,
    "Town": "Godech"
  },
  {
    "ZipCode": 2260,
    "Town": "Svoge"
  },
  {
    "ZipCode": 2300,
    "Town": "Pernik"
  },
  {
    "ZipCode": 2340,
    "Town": "Batanovtsi"
  },
  {
    "ZipCode": 2360,
    "Town": "Breznik"
  },
  {
    "ZipCode": 2400,
    "Town": "Radomir"
  },
  {
    "ZipCode": 2440,
    "Town": "Zemen"
  },
  {
    "ZipCode": 2460,
    "Town": "Tran"
  },
  {
    "ZipCode": 2500,
    "Town": "Kyustendil"
  },
  {
    "ZipCode": 2600,
    "Town": "Dupnitsa"
  },
  {
    "ZipCode": 2630,
    "Town": "Rila"
  },
  {
    "ZipCode": 2640,
    "Town": "Kocherinovo"
  },
  {
    "ZipCode": 2650,
    "Town": "Sapareva banya"
  },
  {
    "ZipCode": 2660,
    "Town": "Boboshevo"
  },
  {
    "ZipCode": 2670,
    "Town": "Bobov dol"
  },
  {
    "ZipCode": 2700,
    "Town": "Blagoevgrad"
  },
  {
    "ZipCode": 2730,
    "Town": "Simitli"
  },
  {
    "ZipCode": 2760,
    "Town": "Razlog"
  },
  {
    "ZipCode": 2770,
    "Town": "Bansko"
  },
  {
    "ZipCode": 2780,
    "Town": "Belitsa"
  },
  {
    "ZipCode": 2790,
    "Town": "Yakoruda"
  },
  {
    "ZipCode": 2800,
    "Town": "Sandanski"
  },
  {
    "ZipCode": 2820,
    "Town": "Melnik"
  },
  {
    "ZipCode": 2840,
    "Town": "Kresna"
  },
  {
    "ZipCode": 2850,
    "Town": "Petrich"
  },
  {
    "ZipCode": 2900,
    "Town": "Gotse Delchev"
  },
  {
    "ZipCode": 2933,
    "Town": "Hadzhidimovo"
  },
  {
    "ZipCode": 3000,
    "Town": "Vratsa"
  },
  {
    "ZipCode": 3060,
    "Town": "Krivodol"
  },
  {
    "ZipCode": 3100,
    "Town": "Mezdra"
  },
  {
    "ZipCode": 3130,
    "Town": "Roman"
  },
  {
    "ZipCode": 3200,
    "Town": "Byala Slatina"
  },
  {
    "ZipCode": 3300,
    "Town": "Oryahovo"
  },
  {
    "ZipCode": 3320,
    "Town": "Kozloduy"
  },
  {
    "ZipCode": 3330,
    "Town": "Miziya"
  },
  {
    "ZipCode": 3400,
    "Town": "Montana"
  },
  {
    "ZipCode": 3430,
    "Town": "Boychinovtsi"
  },
  {
    "ZipCode": 3460,
    "Town": "Chiprovtsi"
  },
  {
    "ZipCode": 3500,
    "Town": "Berkovitsa"
  },
  {
    "ZipCode": 3540,
    "Town": "Varshets"
  },
  {
    "ZipCode": 3600,
    "Town": "Lom"
  },
  {
    "ZipCode": 3650,
    "Town": "Valchedram"
  },
  {
    "ZipCode": 3680,
    "Town": "Brusartsi"
  },
  {
    "ZipCode": 3700,
    "Town": "Vidin"
  },
  {
    "ZipCode": 3740,
    "Town": "Dunavtsi"
  },
  {
    "ZipCode": 3750,
    "Town": "Dimovo"
  },
  {
    "ZipCode": 3751,
    "Town": "Sratsimirovo - updated now 3847"
  },
  {
    "ZipCode": 3790,
    "Town": "Bregovo"
  },
  {
    "ZipCode": 3800,
    "Town": "Kula"
  },
  {
    "ZipCode": 3830,
    "Town": "Gramada"
  },
  {
    "ZipCode": 3831,
    "Town": "Vodna"
  },
  {
    "ZipCode": 3832,
    "Town": "Boyanovo"
  },
  {
    "ZipCode": 3833,
    "Town": "Kosta Perchevo"
  },
  {
    "ZipCode": 3834,
    "Town": "Shishentsi"
  },
  {
    "ZipCode": 3835,
    "Town": "Gradskovski kolibi"
  },
  {
    "ZipCode": 3836,
    "Town": "Shipikova mahala"
  },
  {
    "ZipCode": 3838,
    "Town": "Borilovets"
  },
  {
    "ZipCode": 3839,
    "Town": "Golemanovo"
  },
  {
    "ZipCode": 3840,
    "Town": "Boinitsa"
  },
  {
    "ZipCode": 3841,
    "Town": "Perilovets"
  },
  {
    "ZipCode": 3842,
    "Town": "Rabrovo"
  },
  {
    "ZipCode": 3843,
    "Town": "Kanits"
  },
  {
    "ZipCode": 3845,
    "Town": "Medeshevtsi"
  },
  {
    "ZipCode": 3846,
    "Town": "Milchina laka"
  },
  {
    "ZipCode": 3847,
    "Town": "Sratsimirovo Sracimirovo[1]"
  },
  {
    "ZipCode": 3900,
    "Town": "Belogradchik"
  },
  {
    "ZipCode": 4000,
    "Town": "Plovdiv"
  },
  {
    "ZipCode": 4122,
    "Town": "Sadovo"
  },
  {
    "ZipCode": 4150,
    "Town": "Rakovski"
  },
  {
    "ZipCode": 4160,
    "Town": "Brezovo"
  },
  {
    "ZipCode": 4180,
    "Town": "Hisarya"
  },
  {
    "ZipCode": 4190,
    "Town": "Saedinenie"
  },
  {
    "ZipCode": 4210,
    "Town": "Stamboliyski"
  },
  {
    "ZipCode": 4220,
    "Town": "Krichim"
  },
  {
    "ZipCode": 4225,
    "Town": "Perushtitsa"
  },
  {
    "ZipCode": 4230,
    "Town": "Asenovgrad"
  },
  {
    "ZipCode": 4241,
    "Town": "Laki (Plovdiv)"
  },
  {
    "ZipCode": 4270,
    "Town": "Parvomay"
  },
  {
    "ZipCode": 4300,
    "Town": "Karlovo"
  },
  {
    "ZipCode": 4330,
    "Town": "Sopot, Bulgaria"
  },
  {
    "ZipCode": 4341,
    "Town": "Klisura"
  },
  {
    "ZipCode": 4360,
    "Town": "Banya"
  },
  {
    "ZipCode": 4370,
    "Town": "Kalofer"
  },
  {
    "ZipCode": 4400,
    "Town": "Pazardzhik"
  },
  {
    "ZipCode": 4470,
    "Town": "Belovo"
  },
  {
    "ZipCode": 4480,
    "Town": "Vetren"
  },
  {
    "ZipCode": 4490,
    "Town": "Septemvri"
  },
  {
    "ZipCode": 4500,
    "Town": "Panagyurishte"
  },
  {
    "ZipCode": 4530,
    "Town": "Strelcha"
  },
  {
    "ZipCode": 4550,
    "Town": "Peshtera"
  },
  {
    "ZipCode": 4579,
    "Town": "Bratsigovo"
  },
  {
    "ZipCode": 4580,
    "Town": "Batak"
  },
  {
    "ZipCode": 4600,
    "Town": "Velingrad"
  },
  {
    "ZipCode": 4633,
    "Town": "Sarnitsa"
  },
  {
    "ZipCode": 4640,
    "Town": "Rakitovo"
  },
  {
    "ZipCode": 4644,
    "Town": "Kostandovo"
  },
  {
    "ZipCode": 4700,
    "Town": "Smolyan"
  },
  {
    "ZipCode": 4800,
    "Town": "Devin"
  },
  {
    "ZipCode": 4831,
    "Town": "Dospat"
  },
  {
    "ZipCode": 4850,
    "Town": "Chepelare"
  },
  {
    "ZipCode": 4900,
    "Town": "Madan"
  },
  {
    "ZipCode": 4960,
    "Town": "Rudozem"
  },
  {
    "ZipCode": 4980,
    "Town": "Zlatograd"
  },
  {
    "ZipCode": 4990,
    "Town": "Nedelino"
  },
  {
    "ZipCode": 5000,
    "Town": "Veliko Tarnovo"
  },
  {
    "ZipCode": 5030,
    "Town": "Debelets"
  },
  {
    "ZipCode": 5050,
    "Town": "Kilifarevo"
  },
  {
    "ZipCode": 5070,
    "Town": "Elena"
  },
  {
    "ZipCode": 5090,
    "Town": "Zlataritsa"
  },
  {
    "ZipCode": 5100,
    "Town": "Gorna Oryahovitsa"
  },
  {
    "ZipCode": 5130,
    "Town": "Dolna Oryahovitsa"
  },
  {
    "ZipCode": 5140,
    "Town": "Lyaskovets"
  },
  {
    "ZipCode": 5150,
    "Town": "Strazhitsa"
  },
  {
    "ZipCode": 5180,
    "Town": "Polski Trambesh"
  },
  {
    "ZipCode": 5200,
    "Town": "Pavlikeni"
  },
  {
    "ZipCode": 5220,
    "Town": "Byala Cherkva"
  },
  {
    "ZipCode": 5240,
    "Town": "Suhindol"
  },
  {
    "ZipCode": 5250,
    "Town": "Svishtov"
  },
  {
    "ZipCode": 5300,
    "Town": "Gabrovo"
  },
  {
    "ZipCode": 5350,
    "Town": "Tryavna"
  },
  {
    "ZipCode": 5360,
    "Town": "Plachkovtsi"
  },
  {
    "ZipCode": 5370,
    "Town": "Dryanovo"
  },
  {
    "ZipCode": 5400,
    "Town": "Sevlievo"
  },
  {
    "ZipCode": 5500,
    "Town": "Lovech"
  },
  {
    "ZipCode": 5570,
    "Town": "Letnitsa"
  },
  {
    "ZipCode": 5580,
    "Town": "Ugarchin"
  },
  {
    "ZipCode": 5600,
    "Town": "Troyan"
  },
  {
    "ZipCode": 5641,
    "Town": "Apriltsi"
  },
  {
    "ZipCode": 5700,
    "Town": "Teteven"
  },
  {
    "ZipCode": 5750,
    "Town": "Yablanitsa"
  },
  {
    "ZipCode": 5770,
    "Town": "Lukovit"
  },
  {
    "ZipCode": 5800,
    "Town": "Pleven"
  },
  {
    "ZipCode": 5835,
    "Town": "Knezha"
  },
  {
    "ZipCode": 5840,
    "Town": "Slavyanovo"
  },
  {
    "ZipCode": 5855,
    "Town": "Dolna Mitropoliya"
  },
  {
    "ZipCode": 5857,
    "Town": "Trastenik"
  },
  {
    "ZipCode": 5868,
    "Town": "Iskar"
  },
  {
    "ZipCode": 5870,
    "Town": "Dolni Dabnik"
  },
  {
    "ZipCode": 5898,
    "Town": "Pordim"
  },
  {
    "ZipCode": 5900,
    "Town": "Levski"
  },
  {
    "ZipCode": 5930,
    "Town": "Belene"
  },
  {
    "ZipCode": 5940,
    "Town": "Nikopol"
  },
  {
    "ZipCode": 5960,
    "Town": "Gulyantsi"
  },
  {
    "ZipCode": 5980,
    "Town": "Cherven bryag"
  },
  {
    "ZipCode": 5986,
    "Town": "Koynare"
  },
  {
    "ZipCode": 6000,
    "Town": "Stara Zagora"
  },
  {
    "ZipCode": 6011,
    "Town": "Zora"
  },
  {
    "ZipCode": 6100,
    "Town": "Kazanlak"
  },
  {
    "ZipCode": 6150,
    "Town": "Shipka"
  },
  {
    "ZipCode": 6155,
    "Town": "Pavel Banya"
  },
  {
    "ZipCode": 6180,
    "Town": "Maglizh"
  },
  {
    "ZipCode": 6190,
    "Town": "Nikolaevo"
  },
  {
    "ZipCode": 6199,
    "Town": "Gurkovo"
  },
  {
    "ZipCode": 6200,
    "Town": "Chirpan"
  },
  {
    "ZipCode": 6260,
    "Town": "Radnevo"
  },
  {
    "ZipCode": 6280,
    "Town": "Galabovo"
  },
  {
    "ZipCode": 6300,
    "Town": "Haskovo"
  },
  {
    "ZipCode": 6400,
    "Town": "Dimitrovgrad"
  },
  {
    "ZipCode": 6430,
    "Town": "Merichleri"
  },
  {
    "ZipCode": 6450,
    "Town": "Harmanli"
  },
  {
    "ZipCode": 6480,
    "Town": "Madzharovo"
  },
  {
    "ZipCode": 6490,
    "Town": "Simeonovgrad"
  },
  {
    "ZipCode": 6500,
    "Town": "Svilengrad"
  },
  {
    "ZipCode": 6550,
    "Town": "Lyubimets"
  },
  {
    "ZipCode": 6560,
    "Town": "Topolovgrad"
  },
  {
    "ZipCode": 6570,
    "Town": "Ivaylovgrad"
  },
  {
    "ZipCode": 6600,
    "Town": "Kardzhali"
  },
  {
    "ZipCode": 6750,
    "Town": "Ardino"
  },
  {
    "ZipCode": 6800,
    "Town": "Momchilgrad"
  },
  {
    "ZipCode": 6850,
    "Town": "Dzhebel"
  },
  {
    "ZipCode": 6900,
    "Town": "Krumovgrad"
  },
  {
    "ZipCode": 7000,
    "Town": "Rousse"
  },
  {
    "ZipCode": 7060,
    "Town": "Slivo pole"
  },
  {
    "ZipCode": 7080,
    "Town": "Vetovo"
  },
  {
    "ZipCode": 7100,
    "Town": "Byala (Ruse)"
  },
  {
    "ZipCode": 7150,
    "Town": "Dve mogili"
  },
  {
    "ZipCode": 7174,
    "Town": "Borovo"
  },
  {
    "ZipCode": 7200,
    "Town": "Razgrad"
  },
  {
    "ZipCode": 7271,
    "Town": "Senovo"
  },
  {
    "ZipCode": 7280,
    "Town": "Tsar Kaloyan"
  },
  {
    "ZipCode": 7290,
    "Town": "Loznitsa"
  },
  {
    "ZipCode": 7294,
    "Town": "Glodzhevo"
  },
  {
    "ZipCode": 7300,
    "Town": "Kubrat"
  },
  {
    "ZipCode": 7330,
    "Town": "Zavet"
  },
  {
    "ZipCode": 7400,
    "Town": "Isperih"
  },
  {
    "ZipCode": 7500,
    "Town": "Silistra"
  },
  {
    "ZipCode": 7570,
    "Town": "Alfatar"
  },
  {
    "ZipCode": 7600,
    "Town": "Tutrakan"
  },
  {
    "ZipCode": 7630,
    "Town": "Glavinitsa"
  },
  {
    "ZipCode": 7650,
    "Town": "Dulovo"
  },
  {
    "ZipCode": 7700,
    "Town": "Targovishte"
  },
  {
    "ZipCode": 7800,
    "Town": "Popovo"
  },
  {
    "ZipCode": 7840,
    "Town": "Opaka"
  },
  {
    "ZipCode": 7900,
    "Town": "Omurtag"
  },
  {
    "ZipCode": 7970,
    "Town": "Antonovo"
  },
  {
    "ZipCode": 8000,
    "Town": "Burgas"
  },
  {
    "ZipCode": 8110,
    "Town": "Balgarovo"
  },
  {
    "ZipCode": 8120,
    "Town": "Kameno"
  },
  {
    "ZipCode": 8130,
    "Town": "Sozopol"
  },
  {
    "ZipCode": 8200,
    "Town": "Pomorie"
  },
  {
    "ZipCode": 8210,
    "Town": "Kableshkovo"
  },
  {
    "ZipCode": 8230,
    "Town": "Nesebar"
  },
  {
    "ZipCode": 8250,
    "Town": "Obzor"
  },
  {
    "ZipCode": 8260,
    "Town": "Tsarevo"
  },
  {
    "ZipCode": 8280,
    "Town": "Ahtopol"
  },
  {
    "ZipCode": 8290,
    "Town": "Primorsko"
  },
  {
    "ZipCode": 8300,
    "Town": "Sredets"
  },
  {
    "ZipCode": 8162,
    "Town": "Malko Tarnovo"
  },
  {
    "ZipCode": 8400,
    "Town": "Karnobat"
  },
  {
    "ZipCode": 8470,
    "Town": "Sungurlare"
  },
  {
    "ZipCode": 8500,
    "Town": "Aytos"
  },
  {
    "ZipCode": 8600,
    "Town": "Yambol"
  },
  {
    "ZipCode": 8680,
    "Town": "Straldzha"
  },
  {
    "ZipCode": 8700,
    "Town": "Elhovo"
  },
  {
    "ZipCode": 8720,
    "Town": "Bolyarovo"
  },
  {
    "ZipCode": 8800,
    "Town": "Sliven"
  },
  {
    "ZipCode": 8870,
    "Town": "Kermen"
  },
  {
    "ZipCode": 8890,
    "Town": "Tvarditsa"
  },
  {
    "ZipCode": 8895,
    "Town": "Shivachevo"
  },
  {
    "ZipCode": 8900,
    "Town": "Nova Zagora"
  },
  {
    "ZipCode": 8970,
    "Town": "Kotel"
  },
  {
    "ZipCode": 9000,
    "Town": "Varna"
  },
  {
    "ZipCode": 9101,
    "Town": "Byala (Varna)"
  },
  {
    "ZipCode": 9120,
    "Town": "Dolni Chiflik"
  },
  {
    "ZipCode": 9154,
    "Town": "Aksakovo"
  },
  {
    "ZipCode": 9160,
    "Town": "Devnya"
  },
  {
    "ZipCode": 9170,
    "Town": "Suvorovo"
  },
  {
    "ZipCode": 9178,
    "Town": "Beloslav"
  },
  {
    "ZipCode": 9200,
    "Town": "Provadiya"
  },
  {
    "ZipCode": 9250,
    "Town": "Dalgopol"
  },
  {
    "ZipCode": 9280,
    "Town": "Valchidol"
  },
  {
    "ZipCode": 9300,
    "Town": "Dobrich"
  },
  {
    "ZipCode": 9450,
    "Town": "Tervel"
  },
  {
    "ZipCode": 9500,
    "Town": "General Toshevo"
  },
  {
    "ZipCode": 9600,
    "Town": "Balchik"
  },
  {
    "ZipCode": 9650,
    "Town": "Kavarna"
  },
  {
    "ZipCode": 9680,
    "Town": "Shabla"
  },
  {
    "ZipCode": 9700,
    "Town": "Shumen"
  },
  {
    "ZipCode": 9820,
    "Town": "Smyadovo"
  },
  {
    "ZipCode": 9850,
    "Town": "Veliki Preslav"
  },
  {
    "ZipCode": 9870,
    "Town": "Varbitsa"
  },
  {
    "ZipCode": 9900,
    "Town": "Novi Pazar"
  },
  {
    "ZipCode": 9920,
    "Town": "Pliska"
  },
  {
    "ZipCode": 9930,
    "Town": "Kaspichan"
  },
  {
    "ZipCode": 9960,
    "Town": "Kaolinovo"
  }
]